NORAD_CAT_ID,OBJECT_NAME,OBJECT_TYPE,EPOCH,MEAN_MOTION,ECCENTRICITY,INCLINATION,RA_OF_ASC_NODE,ARG_OF_PERICENTER,MEAN_ANOMALY,BSTAR,MEAN_MOTION_DOT,MEAN_MOTION_DDOT,TLE_LINE0,TLE_LINE1,TLE_LINE2,SEMIMAJOR_AXIS,PERIOD,APOGEE,PERIGEE,DECAYED
50191.0,STARLINK-3273,PAYLOAD,2023-07-21 13:49:09,15.08848954,8.3e-05,53.2162,258.2147,113.1606,246.9474,0.00019409,2.803e-05,0.0,0 STARLINK-3273,1 50191U 21125AM  23202.57579877  .00002803  00000-0  19409-3 0  9990,2 50191  53.2162 258.2147 0000830 113.1606 246.9474 15.08848954 88122,6917.853,95.437,540.292,539.144,0.0
50191.0,STARLINK-3273,PAYLOAD,2023-07-24 11:46:08,15.08837253,0.000114,53.2164,245.1332,74.993,285.1188,3.5421e-05,2.76e-06,0.0,0 STARLINK-3273,1 50191U 21125AM  23205.49037266  .00000276  00000-0  35421-4 0  9990,2 50191  53.2164 245.1332 0001140  74.9930 285.1188 15.08837253 91642,6917.889,95.438,540.542,538.965,0.0
50191.0,STARLINK-3273,PAYLOAD,2023-07-25 11:36:54,15.08862906,7.91e-05,53.2158,240.6736,88.9758,271.1324,-0.00020707,-3.584e-05,0.0,0 STARLINK-3273,1 50191U 21125AM  23206.48396047 -.00003584  00000-0 -20707-3 0  9992,2 50191  53.2158 240.6736 0000791  88.9758 271.1324 15.08862906 91793,6917.81,95.436,540.223,539.128,0.0
50191.0,STARLINK-3273,PAYLOAD,2023-07-26 11:27:42,15.0883962,8.7e-05,53.2149,236.2105,98.6404,261.4687,7.5681e-05,9.17e-06,0.0,0 STARLINK-3273,1 50191U 21125AM  23207.47757214  .00000917  00000-0  75681-4 0  9996,2 50191  53.2149 236.2105 0000870  98.6404 261.4687 15.08839620 91946,6917.882,95.438,540.348,539.145,0.0
50191.0,STARLINK-3273,PAYLOAD,2023-07-26 19:24:37,15.08842688,9.79e-05,53.2156,234.7224,120.4662,239.6427,8.7808e-05,1.11e-05,0.0,0 STARLINK-3273,1 50191U 21125AM  23207.80876929  .00001110  00000-0  87808-4 0  9998,2 50191  53.2156 234.7224 0000979 120.4662 239.6427 15.08842688 91991,6917.872,95.437,540.414,539.06,0.0
50191.0,STARLINK-3273,PAYLOAD,2023-07-27 01:46:10,15.08845597,8.67e-05,53.2154,233.5329,109.858,250.2505,7.9195e-05,9.73e-06,0.0,0 STARLINK-3273,1 50191U 21125AM  23208.07372779  .00000973  00000-0  79195-4 0  9998,2 50191  53.2154 233.5329 0000867 109.8580 250.2505 15.08845597 88958,6917.863,95.437,540.328,539.129,0.0
50191.0,STARLINK-3273,PAYLOAD,2023-07-27 08:07:42,15.08847552,8.7e-05,53.2152,232.3438,111.9682,248.1402,9.8541e-05,1.281e-05,0.0,0 STARLINK-3273,1 50191U 21125AM  23208.33868524  .00001281  00000-0  98541-4 0  9994,2 50191  53.2152 232.3438 0000870 111.9682 248.1402 15.08847552 92078,6917.857,95.437,540.324,539.12,0.0
50191.0,STARLINK-3273,PAYLOAD,2023-07-27 19:15:24,15.0884497,8.09e-05,53.215,230.2628,85.0991,275.0094,6.2295e-05,7.04e-06,0.0,0 STARLINK-3273,1 50191U 21125AM  23208.80236706  .00000704  00000-0  62295-4 0  9993,2 50191  53.2150 230.2628 0000809  85.0991 275.0094 15.08844970 92145,6917.865,95.437,540.29,539.171,0.0
50191.0,STARLINK-3273,PAYLOAD,2023-07-28 01:36:57,15.08828909,3.97e-05,53.2154,229.0759,60.3373,299.7658,0.00012848,1.757e-05,0.0,0 STARLINK-3273,1 50191U 21125AM  23209.06733573  .00001757  00000-0  12848-3 0  9993,2 50191  53.2154 229.0759 0000397  60.3373 299.7658 15.08828909 89107,6917.914,95.438,540.054,539.505,0.0
50191.0,STARLINK-3273,PAYLOAD,2023-07-28 12:44:39,15.08837649,8.89e-05,53.2157,226.9926,83.4404,276.6689,2.407e-05,9.5e-07,0.0,0 STARLINK-3273,1 50191U 21125AM  23209.53101344  .00000095  00000-0  24070-4 0  9995,2 50191  53.2157 226.9926 0000889  83.4404 276.6689 15.08837649 92258,6917.888,95.438,540.368,539.138,0.0
50191.0,STARLINK-3273,PAYLOAD,2023-07-29 01:27:44,15.08840551,9.31e-05,53.2161,224.6136,83.688,276.4218,-5.8646e-06,-3.81e-06,0.0,0 STARLINK-3273,1 50191U 21125AM  23210.06093269 -.00000381  00000-0 -58646-5 0  9998,2 50191  53.2161 224.6136 0000931  83.6880 276.4218 15.08840551 89257,6917.879,95.438,540.388,539.1,0.0
50191.0,STARLINK-3273,PAYLOAD,2023-07-30 06:04:41,15.08835475,9.04e-05,53.216,219.2608,86.0918,274.0177,6.0116e-05,6.69e-06,0.0,0 STARLINK-3273,1 50191U 21125AM  23211.25325479  .00000669  00000-0  60116-4 0  9992,2 50191  53.2160 219.2608 0000904  86.0918 274.0177 15.08835475 89436,6917.894,95.438,540.385,539.134,0.0
50191.0,STARLINK-3273,PAYLOAD,2023-07-31 07:30:51,15.08838377,9.72e-05,53.216,214.5021,90.0058,270.1045,4.7052e-05,4.61e-06,0.0,0 STARLINK-3273,1 50191U 21125AM  23212.31309548  .00000461  00000-0  47052-4 0  9993,2 50191  53.2160 214.5021 0000972  90.0058 270.1045 15.08838377 89590,6917.885,95.438,540.423,539.078,0.0
50191.0,STARLINK-3273,PAYLOAD,2023-08-01 16:53:57,15.08838614,9.5e-05,53.2159,208.2573,87.3702,272.7399,3.7754e-05,3.13e-06,0.0,0 STARLINK-3273,1 50191U 21125AM  23213.70413780  .00000313  00000-0  37754-4 0  9995,2 50191  53.2159 208.2573 0000950  87.3702 272.7399 15.08838614 89809,6917.885,95.438,540.407,539.092,0.0
50191.0,STARLINK-3273,PAYLOAD,2023-08-02 23:06:17,15.08839767,9.79e-05,53.2159,202.6082,85.6605,274.4499,6.7656e-05,7.89e-06,0.0,0 STARLINK-3273,1 50191U 21125AM  23214.96269720  .00000789  00000-0  67656-4 0  9998,2 50191  53.2159 202.6082 0000979  85.6605 274.4499 15.08839767 89996,6917.881,95.438,540.423,539.069,0.0
50191.0,STARLINK-3273,PAYLOAD,2023-08-04 02:07:50,15.08835032,0.0001054,53.2162,197.5534,85.5147,274.5965,4.977e-06,-2.09e-06,0.0,0 STARLINK-3273,1 50191U 21125AM  23216.08878252 -.00000209  00000-0  49770-5 0  9995,2 50191  53.2162 197.5534 0001054  85.5147 274.5965 15.08835032 90160,6917.896,95.438,540.49,539.031,0.0
50191.0,STARLINK-3273,PAYLOAD,2023-08-04 10:04:46,15.08841233,0.0001082,53.2163,196.066,90.8775,269.2341,4.3554e-05,4.05e-06,0.0,0 STARLINK-3273,1 50191U 21125AM  23216.41997738  .00000405  00000-0  43554-4 0  9993,2 50191  53.2163 196.0660 0001082  90.8775 269.2341 15.08841233 90217,6917.877,95.437,540.49,538.993,0.0
50191.0,STARLINK-3273,PAYLOAD,2023-08-06 05:00:10,15.08847017,0.0001235,53.2168,188.0357,97.6352,262.4781,7.5102e-05,9.08e-06,0.0,0 STARLINK-3273,1 50191U 21125AM  23218.20845230  .00000908  00000-0  75102-4 0  9993,2 50191  53.2168 188.0357 0001235  97.6352 262.4781 15.08847017 90480,6917.859,95.437,540.578,538.87,0.0
50191.0,STARLINK-3273,PAYLOAD,2023-08-06 14:32:29,15.08839585,0.0001128,53.2164,186.2549,131.5782,228.5307,3.4784e-05,2.66e-06,0.0,0 STARLINK-3273,1 50191U 21125AM  23218.60589812  .00000266  00000-0  34784-4 0  9996,2 50191  53.2164 186.2549 0001128 131.5782 228.5307 15.08839585 90540,6917.882,95.438,540.527,538.966,0.0
50191.0,STARLINK-3273,PAYLOAD,2023-08-07 04:50:59,15.08829633,0.0001052,53.2161,183.5779,92.8577,267.2536,-0.00010073,-1.89e-05,0.0,0 STARLINK-3273,1 50191U 21125AM  23219.20207341 -.00001890  00000-0 -10073-3 0  9997,2 50191  53.2161 183.5779 0001052  92.8577 267.2536 15.08829633 90636,6917.912,95.438,540.505,539.049,0.0
50191.0,STARLINK-3273,PAYLOAD,2023-08-07 14:23:17,15.08835775,0.0001244,53.2175,181.7943,80.4748,279.6385,-4.6364e-05,-1.026e-05,0.0,0 STARLINK-3273,1 50191U 21125AM  23219.59951101 -.00001026  00000-0 -46364-4 0  9993,2 50191  53.2175 181.7943 0001244  80.4748 279.6385 15.08835775 90699,6917.893,95.438,540.619,538.898,0.0
50191.0,STARLINK-3273,PAYLOAD,2023-08-08 06:17:08,15.0885141,0.0001041,53.2168,178.8199,93.8504,266.2607,6.7862e-05,7.93e-06,0.0,0 STARLINK-3273,1 50191U 21125AM  23220.26189927  .00000793  00000-0  67862-4 0  9992,2 50191  53.2168 178.8199 0001041  93.8504 266.2607 15.08851410 90798,6917.846,95.437,540.431,538.99,0.0
50191.0,STARLINK-3273,PAYLOAD,2023-08-09 07:43:18,15.08844094,0.0001292,53.2175,174.0604,89.6274,270.4866,6.9155e-05,8.13e-06,0.0,0 STARLINK-3273,1 50191U 21125AM  23221.32174619  .00000813  00000-0  69155-4 0  9992,2 50191  53.2175 174.0604 0001292  89.6274 270.4866 15.08844094 90952,6917.868,95.437,540.627,538.839,0.0
50191.0,STARLINK-3273,PAYLOAD,2023-08-10 13:55:38,15.08842117,0.0001065,53.2178,168.4104,91.2223,268.8891,1.6538e-05,-2.5e-07,0.0,0 STARLINK-3273,1 50191U 21125AM  23222.58030707 -.00000025  00000-0  16538-4 0  9993,2 50191  53.2178 168.4104 0001065  91.2223 268.8891 15.08842117 91143,6917.874,95.437,540.476,539.002,0.0
50191.0,STARLINK-3273,PAYLOAD,2023-08-12 02:29:31,15.08836452,0.0001233,53.2167,161.5744,81.1629,278.9502,7.1139e-05,8.44e-06,0.0,0 STARLINK-3273,1 50191U 21125AM  23224.10383118  .00000844  00000-0  71139-4 0  9996,2 50191  53.2167 161.5744 0001233  81.1629 278.9502 15.08836452 91371,6917.891,95.438,540.609,538.903,0.0
50191.0,STARLINK-3273,PAYLOAD,2023-08-13 05:31:03,15.08845774,0.0001318,53.2171,156.517,89.7514,270.3629,7.3323e-05,8.79e-06,0.0,0 STARLINK-3273,1 50191U 21125AM  23225.22990664  .00000879  00000-0  73323-4 0  9995,2 50191  53.2171 156.5170 0001318  89.7514 270.3629 15.08845774 91546,6917.863,95.437,540.64,538.816,0.0
50191.0,STARLINK-3273,PAYLOAD,2023-08-15 02:01:52,15.08849816,0.000123,53.2189,148.194,99.9107,260.2024,-0.00019037,-3.317e-05,0.0,0 STARLINK-3273,1 50191U 21125AM  23227.08463173 -.00003317  00000-0 -19037-3 0  9994,2 50191  53.2189 148.1940 0001230  99.9107 260.2024 15.08849816 91820,6917.85,95.437,540.566,538.864,0.0
50191.0,STARLINK-3273,PAYLOAD,2023-08-15 03:37:15,15.08838325,0.0001362,53.217,147.8941,89.7881,270.3267,1.7613e-05,-8e-08,0.0,0 STARLINK-3273,1 50191U 21125AM  23227.15087442 -.00000008  00000-0  17613-4 0  9995,2 50191  53.2170 147.8941 0001362  89.7881 270.3267 15.08838325 91834,6917.886,95.438,540.693,538.808,0.0
50191.0,STARLINK-3273,PAYLOAD,2023-08-16 17:46:30,15.08835897,0.0001393,53.2174,140.7589,88.4258,271.6893,0.00018334,2.631e-05,0.0,0 STARLINK-3273,1 50191U 21125AM  23228.74063495  .00002631  00000-0  18334-3 0  9996,2 50191  53.2174 140.7589 0001393  88.4258 271.6893 15.08835897 92073,6917.893,95.438,540.722,538.794,0.0
50191.0,STARLINK-3273,PAYLOAD,2023-08-17 03:18:49,15.08846683,0.0001467,53.2176,138.9741,88.2982,271.8178,0.00018766,2.7e-05,0.0,0 STARLINK-3273,1 50191U 21125AM  23229.13806952  .00002700  00000-0  18766-3 0  9999,2 50191  53.2176 138.9741 0001467  88.2982 271.8178 15.08846683 92138,6917.86,95.437,540.74,538.71,0.0
